<?xml version="1.0" encoding="UTF-8"?>
<kml xmlns="http://www.opengis.net/kml/2.2">
  <Document>
    <name>Bengaluru survey site</name>
    <Placemark>
      <name>Site boundary</name>
      <Polygon>
        <outerBoundaryIs>
          <LinearRing>
            <coordinates>
              77.5900,12.9700 77.5950,12.9700 77.5950,12.9750 77.5900,12.9750 77.5900,12.9700
            </coordinates>
          </LinearRing>
        </outerBoundaryIs>
      </Polygon>
    </Placemark>
    <Placemark>
      <name>Access road</name>
      <LineString>
        <coordinates>
          77.5880,12.9690 77.5900,12.9700 77.5925,12.9725
        </coordinates>
      </LineString>
    </Placemark>
    <Placemark>
      <name>Main gate</name>
      <Point>
        <coordinates>77.5900,12.9700</coordinates>
      </Point>
    </Placemark>
  </Document>
</kml>